{"type": "FeatureCollection", "features": [ {"type": "Feature", "properties": {"norad_id": 66589, "name": "STARLINK-35447", "group": "last-30-days", "lat": 41.70919175051219, "lon": -120.17165288098141, "alt_km": 438.12740504610156, "timestamp": "2025-12-17T04:57:43.202882+00:00", "meta": {"OBJECT_NAME": "STARLINK-35447", "OBJECT_ID": "2025-270B", "EPOCH": "2025-12-16T22:00:03.000096", "MEAN_MOTION": 15.40661746, "ECCENTRICITY": 0.00014059, "INCLINATION": 42.9991, "RA_OF_ASC_NODE": 168.4692, "ARG_OF_PERICENTER": 295.8514, "MEAN_ANOMALY": 330.9161, "EPHEMERIS_TYPE": 0, "CLASSIFICATION_TYPE": "U", "NORAD_CAT_ID": 66589, "ELEMENT_SET_NO": 999, "REV_AT_EPOCH": 517, "BSTAR": 0.0017919554, "MEAN_MOTION_DOT": 0.00075196, "MEAN_MOTION_DDOT": 0}, "tle": {"line1": "1 66589U 25270B   25350.91670139  .00075196  00000+0  17920-2 0  9999", "line2": "2 66589  42.9991 168.4692 0001405 295.8514 330.9161 15.40661746  5176"}}, "geometry": {"type": "Point", "coordinates": [-120.17165288098141, 41.70919175051219]}}, {"type": "Feature", "properties": {"norad_id": 66590, "name": "STARLINK-35429", "group": "last-30-days", "lat": 17.460789205830046, "lon": -33.11953846988796, "alt_km": 412.90625506377364, "timestamp": "2025-12-17T04:57:43.202892+00:00", "meta": {"OBJECT_NAME": "STARLINK-35429", "OBJECT_ID": "2025-270C", "EPOCH": "2025-12-16T12:50:27.251232", "MEAN_MOTION": 15.50425515, "ECCENTRICITY": 0.00032679, "INCLINATION": 42.9984, "RA_OF_ASC_NODE": 170.5388, "ARG_OF_PERICENTER": 251.7306, "MEAN_ANOMALY": 108.3198, "EPHEMERIS_TYPE": 0, "CLASSIFICATION_TYPE": "U", "NORAD_CAT_ID": 66590, "ELEMENT_SET_NO": 999, "REV_AT_EPOCH": 504, "BSTAR": 0.0012711254, "MEAN_MOTION_DOT": 0.00074543, "MEAN_MOTION_DDOT": 0}, "tle": {"line1": "1 66590U 25270C   25350.53503763  .00074543  00000+0  12711-2 0  9995", "line2": "2 66590  42.9984 170.5388 0003267 251.7306 108.3198 15.50425515  5040"}}, "geometry": {"type": "Point", "coordinates": [-33.11953846988796, 17.460789205830046]}}, {"type": "Feature", "properties": {"norad_id": 66591, "name": "STARLINK-36058", "group": "last-30-days", "lat": 14.661488343148106, "lon": -29.708129114409694, "alt_km": 413.33837454775676, "timestamp": "2025-12-17T04:57:43.202901+00:00", "meta": {"OBJECT_NAME": "STARLINK-36058", "OBJECT_ID": "2025-270D", "EPOCH": "2025-12-16T22:05:57.789600", "MEAN_MOTION": 15.50584123, "ECCENTRICITY": 0.00026182, "INCLINATION": 42.9981, "RA_OF_ASC_NODE": 168.2717, "ARG_OF_PERICENTER": 272.7802, "MEAN_ANOMALY": 87.2758, "EPHEMERIS_TYPE": 0, "CLASSIFICATION_TYPE": "U", "NORAD_CAT_ID": 66591, "ELEMENT_SET_NO": 999, "REV_AT_EPOCH": 499, "BSTAR": 0.0015058001, "MEAN_MOTION_DOT": 0.00089029, "MEAN_MOTION_DDOT": 0}, "tle": {"line1": "1 66591U 25270D   25350.92080775  .00089029  00000+0  15058-2 0  9994", "line2": "2 66591  42.9981 168.2717 0002618 272.7802  87.2758 15.50584123  4992"}}, "geometry": {"type": "Point", "coordinates": [-29.708129114409694, 14.661488343148106]}}, {"type": "Feature", "properties": {"norad_id": 66592, "name": "STARLINK-36066", "group": "last-30-days", "lat": 18.46667323673477, "lon": -172.08123281594325, "alt_km": 441.480178984345, "timestamp": "2025-12-17T04:57:43.202911+00:00", "meta": {"OBJECT_NAME": "STARLINK-36066", "OBJECT_ID": "2025-270E", "EPOCH": "2025-12-16T22:00:03.000096", "MEAN_MOTION": 15.40652671, "ECCENTRICITY": 0.00014801, "INCLINATION": 42.9992, "RA_OF_ASC_NODE": 168.5898, "ARG_OF_PERICENTER": 275.3389, "MEAN_ANOMALY": 301.758, "EPHEMERIS_TYPE": 0, "CLASSIFICATION_TYPE": "U", "NORAD_CAT_ID": 66592, "ELEMENT_SET_NO": 999, "REV_AT_EPOCH": 497, "BSTAR": 0.001907281, "MEAN_MOTION_DOT": 0.00080083, "MEAN_MOTION_DDOT": 0}, "tle": {"line1": "1 66592U 25270E   25350.91670139  .00080083  00000+0  19073-2 0  9995", "line2": "2 66592  42.9992 168.5898 0001480 275.3389 301.7580 15.40652671  4971"}}, "geometry": {"type": "Point", "coordinates": [-172.08123281594325, 18.46667323673477]}}, {"type": "Feature", "properties": {"norad_id": 66593, "name": "STARLINK-36031", "group": "last-30-days", "lat": 38.2096425707917, "lon": -70.94162143650905, "alt_km": 438.9902663709463, "timestamp": "2025-12-17T04:57:43.202949+00:00", "meta": {"OBJECT_NAME": "STARLINK-36031", "OBJECT_ID": "2025-270F", "EPOCH": "2025-12-16T22:00:03.000096", "MEAN_MOTION": 15.40631995, "ECCENTRICITY": 0.00014851, "INCLINATION": 42.9993, "RA_OF_ASC_NODE": 168.3788, "ARG_OF_PERICENTER": 277.7939, "MEAN_ANOMALY": 26.4145, "EPHEMERIS_TYPE": 0, "CLASSIFICATION_TYPE": "U", "NORAD_CAT_ID": 66593, "ELEMENT_SET_NO": 999, "REV_AT_EPOCH": 507, "BSTAR": 0.0019913871, "MEAN_MOTION_DOT": 0.00083609, "MEAN_MOTION_DDOT": 0}, "tle": {"line1": "1 66593U 25270F   25350.91670139  .00083609  00000+0  19914-2 0  9997", "line2": "2 66593  42.9993 168.3788 0001485 277.7939  26.4145 15.40631995  5077"}}, "geometry": {"type": "Point", "coordinates": [-70.94162143650905, 38.2096425707917]}}, {"type": "Feature", "properties": {"norad_id": 66594, "name": "STARLINK-36032", "group": "last-30-days", "lat": 10.868969628175128, "lon": -25.306702416533238, "alt_km": 413.45345121064474, "timestamp": "2025-12-17T04:57:43.202961+00:00", "meta": {"OBJECT_NAME": "STARLINK-36032", "OBJECT_ID": "2025-270G", "EPOCH": "2025-12-16T22:04:29.548416", "MEAN_MOTION": 15.50584647, "ECCENTRICITY": 0.00014391, "INCLINATION": 42.9987, "RA_OF_ASC_NODE": 168.2639, "ARG_OF_PERICENTER": 272.283, "MEAN_ANOMALY": 87.7866, "EPHEMERIS_TYPE": 0, "CLASSIFICATION_TYPE": "U", "NORAD_CAT_ID": 66594, "ELEMENT_SET_NO": 999, "REV_AT_EPOCH": 480, "BSTAR": 0.0015354265, "MEAN_MOTION_DOT": 0.00090804, "MEAN_MOTION_DDOT": 0}, "tle": {"line1": "1 66594U 25270G   25350.91978644  .00090804  00000+0  15354-2 0  9999", "line2": "2 66594  42.9987 168.2639 0001439 272.2830  87.7866 15.50584647  4806"}}, "geometry": {"type": "Point", "coordinates": [-25.306702416533238, 10.868969628175128]}}, {"type": "Feature", "properties": {"norad_id": 66595, "name": "STARLINK-35711", "group": "last-30-days", "lat": 9.595810431749241, "lon": -23.8735305776224, "alt_km": 413.5366838948512, "timestamp": "2025-12-17T04:57:43.202978+00:00", "meta": {"OBJECT_NAME": "STARLINK-35711", "OBJECT_ID": "2025-270H", "EPOCH": "2025-12-16T22:03:59.889024", "MEAN_MOTION": 15.50586904, "ECCENTRICITY": 0.00016291, "INCLINATION": 42.9988, "RA_OF_ASC_NODE": 168.2608, "ARG_OF_PERICENTER": 262.4781, "MEAN_ANOMALY": 97.5894, "EPHEMERIS_TYPE": 0, "CLASSIFICATION_TYPE": "U", "NORAD_CAT_ID": 66595, "ELEMENT_SET_NO": 999, "REV_AT_EPOCH": 510, "BSTAR": 0.00078766909, "MEAN_MOTION_DOT": 0.00046153, "MEAN_MOTION_DDOT": 0}, "tle": {"line1": "1 66595U 25270H   25350.91944316  .00046153  00000+0  78767-3 0  9995", "line2": "2 66595  42.9988 168.2608 0001629 262.4781  97.5894 15.50586904  5103"}}, "geometry": {"type": "Point", "coordinates": [-23.8735305776224, 9.595810431749241]}}, {"type": "Feature", "properties": {"norad_id": 66596, "name": "STARLINK-35811", "group": "last-30-days", "lat": 1.921072997939965, "lon": 169.0401515617955, "alt_km": 443.46707403817436, "timestamp": "2025-12-17T04:57:43.202989+00:00", "meta": {"OBJECT_NAME": "STARLINK-35811", "OBJECT_ID": "2025-270J", "EPOCH": "2025-12-16T22:00:03.000096", "MEAN_MOTION": 15.40649144, "ECCENTRICITY": 0.00020069, "INCLINATION": 42.9993, "RA_OF_ASC_NODE": 168.6491, "ARG_OF_PERICENTER": 275.7164, "MEAN_ANOMALY": 276.5219, "EPHEMERIS_TYPE": 0, "CLASSIFICATION_TYPE": "U", "NORAD_CAT_ID": 66596, "ELEMENT_SET_NO": 999, "REV_AT_EPOCH": 517, "BSTAR": 0.0018633511, "MEAN_MOTION_DOT": 0.00078204, "MEAN_MOTION_DDOT": 0}, "tle": {"line1": "1 66596U 25270J   25350.91670139  .00078204  00000+0  18634-2 0  9993", "line2": "2 66596  42.9993 168.6491 0002006 275.7164 276.5219 15.40649144  5178"}}, "geometry": {"type": "Point", "coordinates": [169.0401515617955, 1.921072997939965]}}, {"type": "Feature", "properties": {"norad_id": 66597, "name": "STARLINK-35820", "group": "last-30-days", "lat": 32.78705470052487, "lon": -149.4133821053426, "alt_km": 439.4861976535649, "timestamp": "2025-12-17T04:57:43.202999+00:00", "meta": {"OBJECT_NAME": "STARLINK-35820", "OBJECT_ID": "2025-270K", "EPOCH": "2025-12-16T22:00:03.000096", "MEAN_MOTION": 15.40653018, "ECCENTRICITY": 0.00017237, "INCLINATION": 42.9991, "RA_OF_ASC_NODE": 168.5282, "ARG_OF_PERICENTER": 286.6613, "MEAN_ANOMALY": 315.3172, "EPHEMERIS_TYPE": 0, "CLASSIFICATION_TYPE": "U", "NORAD_CAT_ID": 66597, "ELEMENT_SET_NO": 999, "REV_AT_EPOCH": 517, "BSTAR": 0.0018341724, "MEAN_MOTION_DOT": 0.00076971, "MEAN_MOTION_DDOT": 0}, "tle": {"line1": "1 66597U 25270K   25350.91670139  .00076971  00000+0  18342-2 0  9999", "line2": "2 66597  42.9991 168.5282 0001723 286.6613 315.3172 15.40653018  5174"}}, "geometry": {"type": "Point", "coordinates": [-149.4133821053426, 32.78705470052487]}}, {"type": "Feature", "properties": {"norad_id": 66598, "name": "STARLINK-35981", "group": "last-30-days", "lat": 4.951952720126286, "lon": -18.77648383310796, "alt_km": 413.81400204854253, "timestamp": "2025-12-17T04:57:43.203010+00:00", "meta": {"OBJECT_NAME": "STARLINK-35981", "OBJECT_ID": "2025-270L", "EPOCH": "2025-12-15T05:50:49.994016", "MEAN_MOTION": 15.50578636, "ECCENTRICITY": 0.00015186, "INCLINATION": 42.999, "RA_OF_ASC_NODE": 178.0473, "ARG_OF_PERICENTER": 290.6463, "MEAN_ANOMALY": 69.4235, "EPHEMERIS_TYPE": 0, "CLASSIFICATION_TYPE": "U", "NORAD_CAT_ID": 66598, "ELEMENT_SET_NO": 999, "REV_AT_EPOCH": 457, "BSTAR": 0.001433442, "MEAN_MOTION_DOT": 0.00084665, "MEAN_MOTION_DDOT": 0}, "tle": {"line1": "1 66598U 25270L   25349.24363419  .00084665  00000+0  14334-2 0  9990", "line2": "2 66598  42.9990 178.0473 0001518 290.6463  69.4235 15.50578636  4575"}}, "geometry": {"type": "Point", "coordinates": [-18.77648383310796, 4.951952720126286]}}]}